{
  "type": "FeatureCollection",
  "features": [
    {
      "type": "Feature",
      "properties": {
        "norad_id": 66842,
        "name": "STARLINK-35769",
        "group": "last-30-days",
        "lat": 30.036086516838694,
        "lon": -162.67998801779552,
        "alt_km": 381.8393263883727,
        "timestamp": "2025-12-17T13:48:36.280676+00:00",
        "meta_object_name": "STARLINK-35769",
        "meta_object_id": "2025-280X",
        "meta_epoch": "2025-12-17T08:00:04.999680",
        "meta_mean_motion": 15.62747134,
        "meta_eccentricity": 0.00036691,
        "meta_inclination": 69.9993,
        "meta_ra_of_asc_node": 185.8346,
        "meta_arg_of_pericenter": 275.7493,
        "meta_mean_anomaly": 195.7338,
        "meta_ephemeris_type": 0,
        "meta_classification_type": "U",
        "meta_norad_cat_id": 66842,
        "meta_element_set_no": 999,
        "meta_rev_at_epoch": 363,
        "meta_bstar": -0.024158653,
        "meta_mean_motion_dot": -0.01926926,
        "meta_mean_motion_ddot": 0,
        "tle_line1": "1 66842U 25280X   25351.33339120 -.01926926  00000+0 -24159-1 0  9991",
        "tle_line2": "2 66842  69.9993 185.8346 0003669 275.7493 195.7338 15.62747134  3637"
      },
      "geometry": {
        "type": "Point",
        "coordinates": [
          -162.67998801779552,
          30.036086516838694
        ]
      }
    },
    {
      "type": "Feature",
      "properties": {
        "norad_id": 66843,
        "name": "STARLINK-35997",
        "group": "last-30-days",
        "lat": 33.545856383672586,
        "lon": -160.86770965086,
        "alt_km": 381.4169585371037,
        "timestamp": "2025-12-17T13:48:36.280688+00:00",
        "meta_object_name": "STARLINK-35997",
        "meta_object_id": "2025-280Y",
        "meta_epoch": "2025-12-17T08:00:04.999680",
        "meta_mean_motion": 15.62753798,
        "meta_eccentricity": 0.00035429,
        "meta_inclination": 69.9993,
        "meta_ra_of_asc_node": 185.829,
        "meta_arg_of_pericenter": 274.3705,
        "meta_mean_anomaly": 200.9423,
        "meta_ephemeris_type": 0,
        "meta_classification_type": "U",
        "meta_norad_cat_id": 66843,
        "meta_element_set_no": 999,
        "meta_rev_at_epoch": 363,
        "meta_bstar": -0.024292467,
        "meta_mean_motion_dot": -0.01936691,
        "meta_mean_motion_ddot": 0,
        "tle_line1": "1 66843U 25280Y   25351.33339120 -.01936691  00000+0 -24292-1 0  9990",
        "tle_line2": "2 66843  69.9993 185.8290 0003542 274.3705 200.9423 15.62753798  3634"
      },
      "geometry": {
        "type": "Point",
        "coordinates": [
          -160.86770965086,
          33.545856383672586
        ]
      }
    },
    {
      "type": "Feature",
      "properties": {
        "norad_id": 66844,
        "name": "STARLINK-36073",
        "group": "last-30-days",
        "lat": 31.794908118237153,
        "lon": -161.7902038188345,
        "alt_km": 381.64100859068094,
        "timestamp": "2025-12-17T13:48:36.280699+00:00",
        "meta_object_name": "STARLINK-36073",
        "meta_object_id": "2025-280Z",
        "meta_epoch": "2025-12-17T08:00:04.999680",
        "meta_mean_motion": 15.62746506,
        "meta_eccentricity": 0.00036678,
        "meta_inclination": 69.9991,
        "meta_ra_of_asc_node": 185.8322,
        "meta_arg_of_pericenter": 275.3507,
        "meta_mean_anomaly": 198.0493,
        "meta_ephemeris_type": 0,
        "meta_classification_type": "U",
        "meta_norad_cat_id": 66844,
        "meta_element_set_no": 999,
        "meta_rev_at_epoch": 363,
        "meta_bstar": -0.024148367,
        "meta_mean_motion_dot": -0.01926157,
        "meta_mean_motion_ddot": 0,
        "tle_line1": "1 66844U 25280Z   25351.33339120 -.01926157  00000+0 -24148-1 0  9997",
        "tle_line2": "2 66844  69.9991 185.8322 0003667 275.3507 198.0493 15.62746506  3631"
      },
      "geometry": {
        "type": "Point",
        "coordinates": [
          -161.7902038188345,
          31.794908118237153
        ]
      }
    },
    {
      "type": "Feature",
      "properties": {
        "norad_id": 66845,
        "name": "STARLINK-36068",
        "group": "last-30-days",
        "lat": 38.76042615554693,
        "lon": -157.8444963910228,
        "alt_km": 380.74215487596393,
        "timestamp": "2025-12-17T13:48:36.280709+00:00",
        "meta_object_name": "STARLINK-36068",
        "meta_object_id": "2025-280AA",
        "meta_epoch": "2025-12-17T06:00:00.999648",
        "meta_mean_motion": 15.63168486,
        "meta_eccentricity": 0.00037556,
        "meta_inclination": 69.9989,
        "meta_ra_of_asc_node": 186.0548,
        "meta_arg_of_pericenter": 271.8139,
        "meta_mean_anomaly": 100.2265,
        "meta_ephemeris_type": 0,
        "meta_classification_type": "U",
        "meta_norad_cat_id": 66845,
        "meta_element_set_no": 999,
        "meta_rev_at_epoch": 362,
        "meta_bstar": -0.025066397,
        "meta_mean_motion_dot": -0.02019997,
        "meta_mean_motion_ddot": 0,
        "tle_line1": "1 66845U 25280AA  25351.25001157 -.02019997  00000+0 -25066-1 0  9991",
        "tle_line2": "2 66845  69.9989 186.0548 0003755 271.8139 100.2265 15.63168486  3629"
      },
      "geometry": {
        "type": "Point",
        "coordinates": [
          -157.8444963910228,
          38.76042615554693
        ]
      }
    },
    {
      "type": "Feature",
      "properties": {
        "norad_id": 66846,
        "name": "STARLINK-36055",
        "group": "last-30-days",
        "lat": 35.29251443444159,
        "lon": -159.90393131742448,
        "alt_km": 381.16212703227575,
        "timestamp": "2025-12-17T13:48:36.280719+00:00",
        "meta_object_name": "STARLINK-36055",
        "meta_object_id": "2025-280AB",
        "meta_epoch": "2025-12-17T08:00:04.999680",
        "meta_mean_motion": 15.62744955,
        "meta_eccentricity": 0.00035989,
        "meta_inclination": 69.9992,
        "meta_ra_of_asc_node": 185.827,
        "meta_arg_of_pericenter": 276.1378,
        "meta_mean_anomaly": 201.0961,
        "meta_ephemeris_type": 0,
        "meta_classification_type": "U",
        "meta_norad_cat_id": 66846,
        "meta_element_set_no": 999,
        "meta_rev_at_epoch": 363,
        "meta_bstar": -0.024122663,
        "meta_mean_motion_dot": -0.01924178,
        "meta_mean_motion_ddot": 0,
        "tle_line1": "1 66846U 25280AB  25351.33339120 -.01924178  00000+0 -24123-1 0  9993",
        "tle_line2": "2 66846  69.9992 185.8270 0003598 276.1378 201.0961 15.62744955  3635"
      },
      "geometry": {
        "type": "Point",
        "coordinates": [
          -159.90393131742448,
          35.29251443444159
        ]
      }
    },
    {
      "type": "Feature",
      "properties": {
        "norad_id": 66847,
        "name": "STARLINK-36061",
        "group": "last-30-days",
        "lat": 37.03161267205995,
        "lon": -158.89654503464885,
        "alt_km": 380.9693662730451,
        "timestamp": "2025-12-17T13:48:36.280731+00:00",
        "meta_object_name": "STARLINK-36061",
        "meta_object_id": "2025-280AC",
        "meta_epoch": "2025-12-17T06:00:00.999648",
        "meta_mean_motion": 15.63165712,
        "meta_eccentricity": 0.00037052,
        "meta_inclination": 69.9986,
        "meta_ra_of_asc_node": 186.0573,
        "meta_arg_of_pericenter": 270.7822,
        "meta_mean_anomaly": 99.3443,
        "meta_ephemeris_type": 0,
        "meta_classification_type": "U",
        "meta_norad_cat_id": 66847,
        "meta_element_set_no": 999,
        "meta_rev_at_epoch": 357,
        "meta_bstar": -0.025032166,
        "meta_mean_motion_dot": -0.02017332,
        "meta_mean_motion_ddot": 0,
        "tle_line1": "1 66847U 25280AC  25351.25001157 -.02017332  00000+0 -25032-1 0  9997",
        "tle_line2": "2 66847  69.9986 186.0573 0003705 270.7822  99.3443 15.63165712  3577"
      },
      "geometry": {
        "type": "Point",
        "coordinates": [
          -158.89654503464885,
          37.03161267205995
        ]
      }
    },
    {
      "type": "Feature",
      "properties": {
        "norad_id": 66848,
        "name": "STARLINK-36091",
        "group": "last-30-days",
        "lat": 33.42584764762942,
        "lon": 137.72998832521193,
        "alt_km": 329.7884096190146,
        "timestamp": "2025-12-17T13:48:36.280741+00:00",
        "meta_object_name": "STARLINK-36091",
        "meta_object_id": "2025-281A",
        "meta_epoch": "2025-12-17T06:00:00.999648",
        "meta_mean_motion": 15.79518198,
        "meta_eccentricity": 0.00014392,
        "meta_inclination": 43.0004,
        "meta_ra_of_asc_node": 94.6197,
        "meta_arg_of_pericenter": 271.7549,
        "meta_mean_anomaly": 90.0818,
        "meta_ephemeris_type": 0,
        "meta_classification_type": "U",
        "meta_norad_cat_id": 66848,
        "meta_element_set_no": 999,
        "meta_rev_at_epoch": 212,
        "meta_bstar": -0.0074854665,
        "meta_mean_motion_dot": -0.01241974,
        "meta_mean_motion_ddot": 0,
        "tle_line1": "1 66848U 25281A   25351.25001157 -.01241974  00000+0 -74855-2 0  9997",
        "tle_line2": "2 66848  43.0004  94.6197 0001439 271.7549  90.0818 15.79518198  2128"
      },
      "geometry": {
        "type": "Point",
        "coordinates": [
          137.72998832521193,
          33.42584764762942
        ]
      }
    }
  ]
}